XRISM                   
1 57800U 23137A   23296.48307381  .00004055  00000+0  32578-3 0  9993
2 57800  31.0030  82.1700 0010387  16.2717 343.8249 14.98324373  6979
